{
  "type": "FeatureCollection",
  "features": [
    {
      "type": "Feature",
      "properties": {
        "norad_id": 66463,
        "name": "STARLINK-35463",
        "group": "last-30-days",
        "lat": 21.16939001588793,
        "lon": 155.996240666701,
        "alt_km": 371.9120130600895,
        "timestamp": "2025-12-02T10:50:46.052180+00:00",
        "meta_object_name": "STARLINK-35463",
        "meta_object_id": "2025-262H",
        "meta_epoch": "2025-12-02T04:00:03.998880",
        "meta_mean_motion": 15.65837928,
        "meta_eccentricity": 0.0001378,
        "meta_inclination": 42.9997,
        "meta_ra_of_asc_node": 133.1452,
        "meta_arg_of_pericenter": 267.3201,
        "meta_mean_anomaly": 315.7408,
        "meta_ephemeris_type": 0,
        "meta_classification_type": "U",
        "meta_norad_cat_id": 66463,
        "meta_element_set_no": 999,
        "meta_rev_at_epoch": 393,
        "meta_bstar": -0.023396,
        "meta_mean_motion_dot": -0.0213099,
        "meta_mean_motion_ddot": 0,
        "tle_line1": "1 66463U 25262H   25336.16671295 -.02130990  00000+0 -23396-1 0  9997",
        "tle_line2": "2 66463  42.9997 133.1452 0001378 267.3201 315.7408 15.65837928  3933"
      },
      "geometry": {
        "type": "Point",
        "coordinates": [
          155.996240666701,
          21.16939001588793
        ]
      }
    },
    {
      "type": "Feature",
      "properties": {
        "norad_id": 66464,
        "name": "STARLINK-35435",
        "group": "last-30-days",
        "lat": 19.973387002337635,
        "lon": 154.40182055493503,
        "alt_km": 372.0605653521552,
        "timestamp": "2025-12-02T10:50:46.052190+00:00",
        "meta_object_name": "STARLINK-35435",
        "meta_object_id": "2025-262J",
        "meta_epoch": "2025-12-02T04:00:03.998880",
        "meta_mean_motion": 15.65841799,
        "meta_eccentricity": 0.0001388,
        "meta_inclination": 42.9995,
        "meta_ra_of_asc_node": 133.1506,
        "meta_arg_of_pericenter": 268.292,
        "meta_mean_anomaly": 312.8518,
        "meta_ephemeris_type": 0,
        "meta_classification_type": "U",
        "meta_norad_cat_id": 66464,
        "meta_element_set_no": 999,
        "meta_rev_at_epoch": 393,
        "meta_bstar": -0.02348,
        "meta_mean_motion_dot": -0.02137903,
        "meta_mean_motion_ddot": 0,
        "tle_line1": "1 66464U 25262J   25336.16671295 -.02137903  00000+0 -23480-1 0  9993",
        "tle_line2": "2 66464  42.9995 133.1506 0001388 268.2920 312.8518 15.65841799  3932"
      },
      "geometry": {
        "type": "Point",
        "coordinates": [
          154.40182055493503,
          19.973387002337635
        ]
      }
    },
    {
      "type": "Feature",
      "properties": {
        "norad_id": 66465,
        "name": "STARLINK-35448",
        "group": "last-30-days",
        "lat": 23.51617998905873,
        "lon": 159.26931042142186,
        "alt_km": 371.671461760895,
        "timestamp": "2025-12-02T10:50:46.052200+00:00",
        "meta_object_name": "STARLINK-35448",
        "meta_object_id": "2025-262K",
        "meta_epoch": "2025-12-02T04:00:03.998880",
        "meta_mean_motion": 15.65842327,
        "meta_eccentricity": 0.0001468,
        "meta_inclination": 42.9994,
        "meta_ra_of_asc_node": 133.1359,
        "meta_arg_of_pericenter": 265.3255,
        "meta_mean_anomaly": 321.5666,
        "meta_ephemeris_type": 0,
        "meta_classification_type": "U",
        "meta_norad_cat_id": 66465,
        "meta_element_set_no": 999,
        "meta_rev_at_epoch": 393,
        "meta_bstar": -0.023458,
        "meta_mean_motion_dot": -0.02136305,
        "meta_mean_motion_ddot": 0,
        "tle_line1": "1 66465U 25262K   25336.16671295 -.02136305  00000+0 -23458-1 0  9994",
        "tle_line2": "2 66465  42.9994 133.1359 0001468 265.3255 321.5666 15.65842327  3935"
      },
      "geometry": {
        "type": "Point",
        "coordinates": [
          159.26931042142186,
          23.51617998905873
        ]
      }
    },
    {
      "type": "Feature",
      "properties": {
        "norad_id": 66466,
        "name": "STARLINK-35388",
        "group": "last-30-days",
        "lat": 24.665278071429444,
        "lon": 160.95001406208962,
        "alt_km": 371.41737886417377,
        "timestamp": "2025-12-02T10:50:46.052210+00:00",
        "meta_object_name": "STARLINK-35388",
        "meta_object_id": "2025-262L",
        "meta_epoch": "2025-12-02T04:00:03.998880",
        "meta_mean_motion": 15.65841033,
        "meta_eccentricity": 0.0001426,
        "meta_inclination": 42.9997,
        "meta_ra_of_asc_node": 133.1301,
        "meta_arg_of_pericenter": 269.9437,
        "meta_mean_anomaly": 318.8693,
        "meta_ephemeris_type": 0,
        "meta_classification_type": "U",
        "meta_norad_cat_id": 66466,
        "meta_element_set_no": 999,
        "meta_rev_at_epoch": 393,
        "meta_bstar": -0.023476,
        "meta_mean_motion_dot": -0.02137553,
        "meta_mean_motion_ddot": 0,
        "tle_line1": "1 66466U 25262L   25336.16671295 -.02137553  00000+0 -23476-1 0  9991",
        "tle_line2": "2 66466  42.9997 133.1301 0001426 269.9437 318.8693 15.65841033  3934"
      },
      "geometry": {
        "type": "Point",
        "coordinates": [
          160.95001406208962,
          24.665278071429444
        ]
      }
    },
    {
      "type": "Feature",
      "properties": {
        "norad_id": 66467,
        "name": "STARLINK-35682",
        "group": "last-30-days",
        "lat": 22.351648422514458,
        "lon": 157.61978168897818,
        "alt_km": 371.8340263021437,
        "timestamp": "2025-12-02T10:50:46.052222+00:00",
        "meta_object_name": "STARLINK-35682",
        "meta_object_id": "2025-262M",
        "meta_epoch": "2025-12-02T04:00:03.998880",
        "meta_mean_motion": 15.65842903,
        "meta_eccentricity": 0.0001549,
        "meta_inclination": 42.9996,
        "meta_ra_of_asc_node": 133.1406,
        "meta_arg_of_pericenter": 266.9176,
        "meta_mean_anomaly": 318.0571,
        "meta_ephemeris_type": 0,
        "meta_classification_type": "U",
        "meta_norad_cat_id": 66467,
        "meta_element_set_no": 999,
        "meta_rev_at_epoch": 393,
        "meta_bstar": -0.023473,
        "meta_mean_motion_dot": -0.02137601,
        "meta_mean_motion_ddot": 0,
        "tle_line1": "1 66467U 25262M   25336.16671295 -.02137601  00000+0 -23473-1 0  9993",
        "tle_line2": "2 66467  42.9996 133.1406 0001549 266.9176 318.0571 15.65842903  3937"
      },
      "geometry": {
        "type": "Point",
        "coordinates": [
          157.61978168897818,
          22.351648422514458
        ]
      }
    },
    {
      "type": "Feature",
      "properties": {
        "norad_id": 66468,
        "name": "STARLINK-35331",
        "group": "last-30-days",
        "lat": 25.79245677258919,
        "lon": 162.65988863708148,
        "alt_km": 371.3047953716987,
        "timestamp": "2025-12-02T10:50:46.052234+00:00",
        "meta_object_name": "STARLINK-35331",
        "meta_object_id": "2025-262N",
        "meta_epoch": "2025-12-02T04:00:03.998880",
        "meta_mean_motion": 15.65843803,
        "meta_eccentricity": 0.0001485,
        "meta_inclination": 42.9996,
        "meta_ra_of_asc_node": 133.1262,
        "meta_arg_of_pericenter": 268.9738,
        "meta_mean_anomaly": 321.7515,
        "meta_ephemeris_type": 0,
        "meta_classification_type": "U",
        "meta_norad_cat_id": 66468,
        "meta_element_set_no": 999,
        "meta_rev_at_epoch": 393,
        "meta_bstar": -0.023482,
        "meta_mean_motion_dot": -0.02138325,
        "meta_mean_motion_ddot": 0,
        "tle_line1": "1 66468U 25262N   25336.16671295 -.02138325  00000+0 -23482-1 0  9998",
        "tle_line2": "2 66468  42.9996 133.1262 0001485 268.9738 321.7515 15.65843803  3932"
      },
      "geometry": {
        "type": "Point",
        "coordinates": [
          162.65988863708148,
          25.79245677258919
        ]
      }
    },
    {
      "type": "Feature",
      "properties": {
        "norad_id": 66469,
        "name": "STARLINK-35451",
        "group": "last-30-days",
        "lat": 29.047990138549967,
        "lon": 167.99190113488484,
        "alt_km": 370.9487240289791,
        "timestamp": "2025-12-02T10:50:46.052244+00:00",
        "meta_object_name": "STARLINK-35451",
        "meta_object_id": "2025-262P",
        "meta_epoch": "2025-12-02T04:00:03.998880",
        "meta_mean_motion": 15.65831715,
        "meta_eccentricity": 0.0001521,
        "meta_inclination": 42.9996,
        "meta_ra_of_asc_node": 133.1107,
        "meta_arg_of_pericenter": 265.4534,
        "meta_mean_anomaly": 331.0291,
        "meta_ephemeris_type": 0,
        "meta_classification_type": "U",
        "meta_norad_cat_id": 66469,
        "meta_element_set_no": 999,
        "meta_rev_at_epoch": 393,
        "meta_bstar": -0.023293,
        "meta_mean_motion_dot": -0.02122452,
        "meta_mean_motion_ddot": 0,
        "tle_line1": "1 66469U 25262P   25336.16671295 -.02122452  00000+0 -23293-1 0  9993",
        "tle_line2": "2 66469  42.9996 133.1107 0001521 265.4534 331.0291 15.65831715  3932"
      },
      "geometry": {
        "type": "Point",
        "coordinates": [
          167.99190113488484,
          29.047990138549967
        ]
      }
    }
  ]
}